{
  "type": "FeatureCollection",
  "features": [
    {
      "type": "Feature",
      "properties": {
        "norad_id": 63632,
        "name": "SHENZHOU-20 (SZ-20)",
        "group": "stations",
        "lat": -9.057770538058737,
        "lon": 69.83967667098507,
        "alt_km": 386.81972752226557,
        "timestamp": "2025-12-02T06:27:51.819053+00:00",
        "meta_object_name": "SHENZHOU-20 (SZ-20)",
        "meta_object_id": "2025-082A",
        "meta_epoch": "2025-12-01T15:08:36.996864",
        "meta_mean_motion": 15.5848082,
        "meta_eccentricity": 0.00103969,
        "meta_inclination": 41.4671,
        "meta_ra_of_asc_node": 84.1132,
        "meta_arg_of_pericenter": 308.0304,
        "meta_mean_anomaly": 51.9595,
        "meta_ephemeris_type": 0,
        "meta_classification_type": "U",
        "meta_norad_cat_id": 63632,
        "meta_element_set_no": 999,
        "meta_rev_at_epoch": 25530,
        "meta_bstar": 0.00025188161,
        "meta_mean_motion_dot": 0.00019534,
        "meta_mean_motion_ddot": 0,
        "tle_line1": "1 63632U 25082A   25335.63098376  .00019534  00000+0  25188-3 0  9995",
        "tle_line2": "2 63632  41.4671  84.1132 0010396 308.0304  51.9595 15.58480820255301"
      },
      "geometry": {
        "type": "Point",
        "coordinates": [
          69.83967667098507,
          -9.057770538058737
        ]
      }
    },
    {
      "type": "Feature",
      "properties": {
        "norad_id": 64751,
        "name": "PROGRESS-MS 31",
        "group": "stations",
        "lat": -51.586245753752436,
        "lon": 101.90076538534319,
        "alt_km": 422.9226253578445,
        "timestamp": "2025-12-02T06:27:51.819062+00:00",
        "meta_object_name": "PROGRESS-MS 31",
        "meta_object_id": "2025-146A",
        "meta_epoch": "2025-12-01T13:49:44.445504",
        "meta_mean_motion": 15.49226524,
        "meta_eccentricity": 0.00036473,
        "meta_inclination": 51.6309,
        "meta_ra_of_asc_node": 197.7449,
        "meta_arg_of_pericenter": 190.9481,
        "meta_mean_anomaly": 169.1428,
        "meta_ephemeris_type": 0,
        "meta_classification_type": "U",
        "meta_norad_cat_id": 64751,
        "meta_element_set_no": 999,
        "meta_rev_at_epoch": 675,
        "meta_bstar": 0.00016365535,
        "meta_mean_motion_dot": 8.648e-05,
        "meta_mean_motion_ddot": 0,
        "tle_line1": "1 64751U 25146A   25335.57620886  .00008648  00000+0  16366-3 0  9991",
        "tle_line2": "2 64751  51.6309 197.7449 0003647 190.9481 169.1428 15.49226524  6751"
      },
      "geometry": {
        "type": "Point",
        "coordinates": [
          101.90076538534319,
          -51.586245753752436
        ]
      }
    },
    {
      "type": "Feature",
      "properties": {
        "norad_id": 64786,
        "name": "TIANZHOU-9",
        "group": "stations",
        "lat": -9.05776973255235,
        "lon": 69.83967762062808,
        "alt_km": 386.8197275165112,
        "timestamp": "2025-12-02T06:27:51.819072+00:00",
        "meta_object_name": "TIANZHOU-9",
        "meta_object_id": "2025-149A",
        "meta_epoch": "2025-12-01T15:08:36.996864",
        "meta_mean_motion": 15.5848082,
        "meta_eccentricity": 0.00103969,
        "meta_inclination": 41.4671,
        "meta_ra_of_asc_node": 84.1132,
        "meta_arg_of_pericenter": 308.0304,
        "meta_mean_anomaly": 51.9595,
        "meta_ephemeris_type": 0,
        "meta_classification_type": "U",
        "meta_norad_cat_id": 64786,
        "meta_element_set_no": 999,
        "meta_rev_at_epoch": 25530,
        "meta_bstar": 0.00025188161,
        "meta_mean_motion_dot": 0.00019534,
        "meta_mean_motion_ddot": 0,
        "tle_line1": "1 64786U 25149A   25335.63098376  .00019534  00000+0  25188-3 0  9990",
        "tle_line2": "2 64786  41.4671  84.1132 0010396 308.0304  51.9595 15.58480820255302"
      },
      "geometry": {
        "type": "Point",
        "coordinates": [
          69.83967762062808,
          -9.05776973255235
        ]
      }
    },
    {
      "type": "Feature",
      "properties": {
        "norad_id": 65077,
        "name": "CREW DRAGON 11",
        "group": "stations",
        "lat": -51.58624579629574,
        "lon": 101.90076745877985,
        "alt_km": 422.922625412868,
        "timestamp": "2025-12-02T06:27:51.819082+00:00",
        "meta_object_name": "CREW DRAGON 11",
        "meta_object_id": "2025-166A",
        "meta_epoch": "2025-12-01T13:49:44.445504",
        "meta_mean_motion": 15.49226524,
        "meta_eccentricity": 0.00036473,
        "meta_inclination": 51.6309,
        "meta_ra_of_asc_node": 197.7449,
        "meta_arg_of_pericenter": 190.9481,
        "meta_mean_anomaly": 169.1428,
        "meta_ephemeris_type": 0,
        "meta_classification_type": "U",
        "meta_norad_cat_id": 65077,
        "meta_element_set_no": 999,
        "meta_rev_at_epoch": 214,
        "meta_bstar": 0.00016365535,
        "meta_mean_motion_dot": 8.648e-05,
        "meta_mean_motion_ddot": 0,
        "tle_line1": "1 65077U 25166A   25335.57620886  .00008648  00000+0  16366-3 0  9995",
        "tle_line2": "2 65077  51.6309 197.7449 0003647 190.9481 169.1428 15.49226524  2142"
      },
      "geometry": {
        "type": "Point",
        "coordinates": [
          101.90076745877985,
          -51.58624579629574
        ]
      }
    },
    {
      "type": "Feature",
      "properties": {
        "norad_id": 65304,
        "name": "DRAGON CRS-33",
        "group": "stations",
        "lat": -51.58624581756741,
        "lon": 101.90076849549942,
        "alt_km": 422.9226254403811,
        "timestamp": "2025-12-02T06:27:51.819092+00:00",
        "meta_object_name": "DRAGON CRS-33",
        "meta_object_id": "2025-186A",
        "meta_epoch": "2025-12-01T13:49:44.445504",
        "meta_mean_motion": 15.49226524,
        "meta_eccentricity": 0.00036473,
        "meta_inclination": 51.6309,
        "meta_ra_of_asc_node": 197.7449,
        "meta_arg_of_pericenter": 190.9481,
        "meta_mean_anomaly": 169.1428,
        "meta_ephemeris_type": 0,
        "meta_classification_type": "U",
        "meta_norad_cat_id": 65304,
        "meta_element_set_no": 999,
        "meta_rev_at_epoch": 11,
        "meta_bstar": 0.00016365535,
        "meta_mean_motion_dot": 8.648e-05,
        "meta_mean_motion_ddot": 0,
        "tle_line1": "1 65304U 25186A   25335.57620886  .00008648  00000+0  16366-3 0  9990",
        "tle_line2": "2 65304  51.6309 197.7449 0003647 190.9481 169.1428 15.49226524   110"
      },
      "geometry": {
        "type": "Point",
        "coordinates": [
          101.90076849549942,
          -51.58624581756741
        ]
      }
    },
    {
      "type": "Feature",
      "properties": {
        "norad_id": 65586,
        "name": "PROGRESS-MS 32",
        "group": "stations",
        "lat": -51.58624584522054,
        "lon": 101.90076984323417,
        "alt_km": 422.9226254761461,
        "timestamp": "2025-12-02T06:27:51.819105+00:00",
        "meta_object_name": "PROGRESS-MS 32",
        "meta_object_id": "2025-204A",
        "meta_epoch": "2025-12-01T13:49:44.445504",
        "meta_mean_motion": 15.49226524,
        "meta_eccentricity": 0.00036473,
        "meta_inclination": 51.6309,
        "meta_ra_of_asc_node": 197.7449,
        "meta_arg_of_pericenter": 190.9481,
        "meta_mean_anomaly": 169.1428,
        "meta_ephemeris_type": 0,
        "meta_classification_type": "U",
        "meta_norad_cat_id": 65586,
        "meta_element_set_no": 999,
        "meta_rev_at_epoch": 27,
        "meta_bstar": 0.00016365535,
        "meta_mean_motion_dot": 8.648e-05,
        "meta_mean_motion_ddot": 0,
        "tle_line1": "1 65586U 25204A   25335.57620886  .00008648  00000+0  16366-3 0  9993",
        "tle_line2": "2 65586  51.6309 197.7449 0003647 190.9481 169.1428 15.49226524   279"
      },
      "geometry": {
        "type": "Point",
        "coordinates": [
          101.90076984323417,
          -51.58624584522054
        ]
      }
    },
    {
      "type": "Feature",
      "properties": {
        "norad_id": 65616,
        "name": "CYGNUS NG-23",
        "group": "stations",
        "lat": -51.58624586861934,
        "lon": 101.90077098362545,
        "alt_km": 422.92262550641044,
        "timestamp": "2025-12-02T06:27:51.819116+00:00",
        "meta_object_name": "CYGNUS NG-23",
        "meta_object_id": "2025-208A",
        "meta_epoch": "2025-12-01T13:49:44.445504",
        "meta_mean_motion": 15.49226524,
        "meta_eccentricity": 0.00036473,
        "meta_inclination": 51.6309,
        "meta_ra_of_asc_node": 197.7449,
        "meta_arg_of_pericenter": 190.9481,
        "meta_mean_anomaly": 169.1428,
        "meta_ephemeris_type": 0,
        "meta_classification_type": "U",
        "meta_norad_cat_id": 65616,
        "meta_element_set_no": 999,
        "meta_rev_at_epoch": 22,
        "meta_bstar": 0.00016365535,
        "meta_mean_motion_dot": 8.648e-05,
        "meta_mean_motion_ddot": 0,
        "tle_line1": "1 65616U 25208A   25335.57620886  .00008648  00000+0  16366-3 0  9991",
        "tle_line2": "2 65616  51.6309 197.7449 0003647 190.9481 169.1428 15.49226524   228"
      },
      "geometry": {
        "type": "Point",
        "coordinates": [
          101.90077098362545,
          -51.58624586861934
        ]
      }
    }
  ]
}